SL-16 R/B               
1 28353U 04021B   25226.47850459  .00000342  00000+0  20269-3 0  9997
2 28353  71.0019 307.3309 0005617 333.1768  26.9063 14.14555248 93531
CZ-4B R/B               
1 28415U 04035C   25226.56674974  .00007173  00000+0  28602-3 0  9995
2 28415  97.3767 258.6071 0034387 344.1743  15.8417 15.24946271148304
CZ-2C R/B               
1 28480U 04046B   25226.55878558  .00000229  00000+0  99905-4 0  9992
2 28480  98.1912 149.4719 0140704  47.7506 313.5511 14.26856206 78963
ARIANE 5 R/B            
1 28499U 04049H   25226.42964091  .00000694  00000+0  84467-4 0  9992
2 28499  98.2415  22.5146 0084088 303.1587  56.1580 14.84611809115035
CZ-2D R/B               
1 28738U 05024B   25226.51797821  .00019521  00000+0  40415-3 0  9990
2 28738  97.3693 231.4484 0008070  76.4698 283.7449 15.45778687107641
ALOS (DAICHI)           
1 28931U 06002A   25226.48821918  .00001481  00000+0  26158-3 0  9997
2 28931  98.0879 179.0226 0001023 113.5498 246.5815 14.68892626 43055
H-2A R/B                
1 28932U 06002B   25226.61990400  .00008039  00000+0  45883-3 0  9998
2 28932  98.2189 351.9744 0057130 223.1867 136.4874 15.11650477 63101
RESURS-DK 1             
1 29228U 06021A   25226.53152904  .00002791  00000+0  17190-3 0  9997
2 29228  69.9336  52.2552 0001490  53.0196 307.1105 15.11233951 56212
CZ-4B R/B               
1 29507U 06046C   25226.56167176  .00003416  00000+0  18799-3 0  9995
2 29507  97.5911 267.0267 0033596 263.3499  96.3908 15.14265223 28678
CZ-2C R/B               
1 31114U 07010B   25226.59485101  .00000153  00000+0  89465-4 0  9992
2 31114  98.3854 345.3806 0059229 175.2994 184.8752 14.20146182950325
COSMO-SKYMED 1          
1 31598U 07023A   25226.52585833  .00003279  00000+0  30797-3 0  9993
2 31598  97.8894  51.2163 0001494  93.3446 266.7945 14.94652001983931
GENESIS 2               
1 31789U 07028A   25226.57845359  .00369732  64773-4  71547-3 0  9996
2 31789  64.4658 177.8772 0021215 291.1539  68.7356 15.99657241  3392
COSMOS 2428             
1 31792U 07029A   25226.59497114  .00000072  00000+0  64472-4 0  9992
2 31792  70.9429 278.0756 0004983 227.3707 132.6994 14.12901474934847
SL-16 R/B               
1 31793U 07029B   25226.48695367  .00000040  00000+0  45741-4 0  9994
2 31793  70.9714 247.9241 0002532 274.7301 191.2953 14.14788044936063
KORONAS-FOTON           
1 33504U 09003A   25226.22769942  .00006992  00000+0  18770-3 0  9996
2 33504  82.4332 130.5907 0011864 171.3283 188.8168 15.37672260913809
CZ-2C R/B               
1 37731U 11030B   25226.51211976  .00001350  00000+0  17994-3 0  9996
2 37731  97.8192 183.4838 0052122 305.6013 171.5259 14.80363457759433
H-2A R/B                
1 38341U 12025E   25226.60645666  .00003043  00000+0  29124-3 0  9995
2 38341  98.4393 172.8442 0044484 269.5467  90.0654 14.93330220717295
SHIJIAN-16 (SJ-16)      
1 39358U 13057A   25226.55074245  .00000966  00000+0  99147-4 0  9997
2 39358  74.9700 216.9550 0018342 257.0578 102.8561 14.91497596640612
SL-4 R/B                
1 39679U 14021B   25226.38834208  .00009096  00000+0  24520-3 0  9994
2 39679  51.6064 263.4999 0111284  70.6389 290.6584 15.32562476624412
ALOS-2                  
1 39766U 14029A   25226.55946139  .00001652  00000+0  22809-3 0  9993
2 39766  97.9227 323.1259 0001524  96.7695 263.3690 14.79474102606244
YAOGAN-29               
1 41038U 15069A   25226.56708088  .00000427  00000+0  59624-4 0  9998
2 41038  98.0336 249.2590 0000754  15.2141 344.9095 14.82696038525180
ASTRO-H (HITOMI)        
1 41337U 16012A   25226.35360618  .00002619  00000+0  15873-3 0  9991
2 41337  30.9993 252.8120 0009822  50.6213 309.5293 15.08329175520886
HXMT (HUIYAN)           
1 42758U 17034A   25226.62149076  .00004661  00000+0  25869-3 0  9992
2 42758  43.0142  85.1862 0033980   5.8940 354.2301 15.14354923451118
CZ-2C R/B               
1 43521U 18054D   25226.41467749  .00038013  00000+0  51907-3 0  9991
2 43521  35.1374 263.7275 0030043  83.3530 277.0616 15.55869505396213
SAOCOM 1A               
1 43641U 18076A   25226.57060822 -.00000362  00000+0 -38899-4 0  9990
2 43641  97.8898  52.7091 0001420  90.8717 269.2658 14.82153156370680
H-2A R/B                
1 43682U 18084L   25226.44720072  .00013032  00000+0  41765-3 0  9991
2 43682  98.8824  36.1764 0031237  19.0418 341.1980 15.32063958373955
SAOCOM 1B               
1 46265U 20059A   25226.53434861  .00000407  00000+0  57674-4 0  9993
2 46265  97.8905  51.7786 0001407  88.9374 271.2000 14.82145375268062
CSS (TIANHE)            
1 48274U 21035A   25226.46493814  .00024037  00000+0  31555-3 0  9999
2 48274  41.4656  27.5113 0004918 156.3132 203.7933 15.57952388245242
COSMOS 2550             
1 48865U 21056A   25226.48329062  .00005265  00000+0  16569-3 0  9993
2 48865  67.1434 307.7569 0008393 269.2391  90.7802 15.33842295231688
CZ-2C R/B               
1 52794U 22058K   25226.60988088  .00014264  00000+0  32414-3 0  9991
2 52794  50.1920 292.6316 0054779  56.2796 304.3373 15.41669503178067
GSLV R/B                
1 54149U 22138AN  25226.48737464  .00002432  00000+0  21853-3 0  9991
2 54149  87.3758 235.7273 0022297 177.0466 183.0901 14.95070074152956
XRISM                   
1 57800U 23137A   25226.14925012  .00004908  00000+0  30072-3 0  9992
2 57800  31.0010 183.0073 0007868 116.9124 243.2318 15.08558277106392
ACS3                    
1 59588U 24077B   25226.51747303  .00010438  00000+0  99440-2 0  9995
2 59588  97.4203 208.3670 0068262  25.8581 334.5963 13.79716277 65533
